[{"OBJECT_NAME":"TRANSPORTER-16 OBJECT A","OBJECT_ID":"2026-067A","EPOCH":"2026-04-17T19:39:59.511456","MEAN_MOTION":15.18682962,"ECCENTRICITY":0.0004046,"INCLINATION":97.4505,"RA_OF_ASC_NODE":67.2087,"ARG_OF_PERICENTER":107.6321,"MEAN_ANOMALY":252.5355,"EPHEMERIS_TYPE":0,"CLASSIFICATION_TYPE":"U","NORAD_CAT_ID":68416,"ELEMENT_SET_NO":999,"REV_AT_EPOCH":278,"BSTAR":0.0002538104,"MEAN_MOTION_DOT":5.196e-5,"MEAN_MOTION_DDOT":0},{"OBJECT_NAME":"JACK-002","OBJECT_ID":"2026-067B","EPOCH":"2026-04-17T19:41:00.489120","MEAN_MOTION":15.18618492,"ECCENTRICITY":0.00038926,"INCLINATION":97.4526,"RA_OF_ASC_NODE":67.212,"ARG_OF_PERICENTER":109.6101,"MEAN_ANOMALY":250.5554,"EPHEMERIS_TYPE":0,"CLASSIFICATION_TYPE":"U","NORAD_CAT_ID":68417,"ELEMENT_SET_NO":999,"REV_AT_EPOCH":278,"BSTAR":0.00024097368,"MEAN_MOTION_DOT":4.92e-5,"MEAN_MOTION_DDOT":0},{"OBJECT_NAME":"OPTISAT","OBJECT_ID":"2026-067C","EPOCH":"2026-04-17T19:42:13.698432","MEAN_MOTION":15.1851925,"ECCENTRICITY":0.00038541,"INCLINATION":97.4543,"RA_OF_ASC_NODE":67.2154,"ARG_OF_PERICENTER":121.0306,"MEAN_ANOMALY":239.1307,"EPHEMERIS_TYPE":0,"CLASSIFICATION_TYPE":"U","NORAD_CAT_ID":68418,"ELEMENT_SET_NO":999,"REV_AT_EPOCH":278,"BSTAR":0.00016026295,"MEAN_MOTION_DOT":3.24e-5,"MEAN_MOTION_DDOT":0},{"OBJECT_NAME":"TRANSPORTER-16 OBJECT D","OBJECT_ID":"2026-067D","EPOCH":"2026-04-17T19:42:00.927648","MEAN_MOTION":15.18529535,"ECCENTRICITY":0.00034302,"INCLINATION":97.45,"RA_OF_ASC_NODE":67.2061,"ARG_OF_PERICENTER":101.1674,"MEAN_ANOMALY":258.9946,"EPHEMERIS_TYPE":0,"CLASSIFICATION_TYPE":"U","NORAD_CAT_ID":68419,"ELEMENT_SET_NO":999,"REV_AT_EPOCH":278,"BSTAR":9.8232353e-5,"MEAN_MOTION_DOT":1.96e-5,"MEAN_MOTION_DDOT":0},{"OBJECT_NAME":"ERMIS-2","OBJECT_ID":"2026-067E","EPOCH":"2026-04-17T19:41:35.119104","MEAN_MOTION":15.18633539,"ECCENTRICITY":0.00036304,"INCLINATION":97.4448,"RA_OF_ASC_NODE":67.1953,"ARG_OF_PERICENTER":91.8754,"MEAN_ANOMALY":268.2896,"EPHEMERIS_TYPE":0,"CLASSIFICATION_TYPE":"U","NORAD_CAT_ID":68420,"ELEMENT_SET_NO":999,"REV_AT_EPOCH":278,"BSTAR":0.00034959337,"MEAN_MOTION_DOT":7.174e-5,"MEAN_MOTION_DDOT":0},{"OBJECT_NAME":"TRANSPORTER-16 OBJECT F","OBJECT_ID":"2026-067F","EPOCH":"2026-04-17T19:45:01.340352","MEAN_MOTION":15.18349018,"ECCENTRICITY":0.00029359,"INCLINATION":97.4475,"RA_OF_ASC_NODE":67.198,"ARG_OF_PERICENTER":93.6919,"MEAN_ANOMALY":266.4651,"EPHEMERIS_TYPE":0,"CLASSIFICATION_TYPE":"U","NORAD_CAT_ID":68421,"ELEMENT_SET_NO":999,"REV_AT_EPOCH":278,"BSTAR":0.00015777427,"MEAN_MOTION_DOT":3.173e-5,"MEAN_MOTION_DDOT":0},{"OBJECT_NAME":"TRANSPORTER-16 OBJECT G","OBJECT_ID":"2026-067G","EPOCH":"2026-04-17T19:45:34.860096","MEAN_MOTION":15.18321567,"ECCENTRICITY":0.00028481,"INCLINATION":97.4441,"RA_OF_ASC_NODE":67.1897,"ARG_OF_PERICENTER":89.808,"MEAN_ANOMALY":270.348,"EPHEMERIS_TYPE":0,"CLASSIFICATION_TYPE":"U","NORAD_CAT_ID":68422,"ELEMENT_SET_NO":999,"REV_AT_EPOCH":278,"BSTAR":0.00018081754,"MEAN_MOTION_DOT":3.643e-5,"MEAN_MOTION_DDOT":0},{"OBJECT_NAME":"TRANSPORTER-16 OBJECT H","OBJECT_ID":"2026-067H","EPOCH":"2026-04-17T19:46:31.910880","MEAN_MOTION":15.18272825,"ECCENTRICITY":0.00025564,"INCLINATION":97.4463,"RA_OF_ASC_NODE":67.1936,"ARG_OF_PERICENTER":100.5629,"MEAN_ANOMALY":259.5893,"EPHEMERIS_TYPE":0,"CLASSIFICATION_TYPE":"U","NORAD_CAT_ID":68423,"ELEMENT_SET_NO":999,"REV_AT_EPOCH":278,"BSTAR":0.00019129889,"MEAN_MOTION_DOT":3.853e-5,"MEAN_MOTION_DDOT":0},{"OBJECT_NAME":"TRANSPORTER-16 OBJECT J","OBJECT_ID":"2026-067J","EPOCH":"2026-04-17T21:30:36.974592","MEAN_MOTION":15.17757049,"ECCENTRICITY":4.62e-5,"INCLINATION":97.4481,"RA_OF_ASC_NODE":67.2538,"ARG_OF_PERICENTER":175.424,"MEAN_ANOMALY":184.6999,"EPHEMERIS_TYPE":0,"CLASSIFICATION_TYPE":"U","NORAD_CAT_ID":68424,"ELEMENT_SET_NO":999,"REV_AT_EPOCH":279,"BSTAR":0.00021396989,"MEAN_MOTION_DOT":4.253e-5,"MEAN_MOTION_DDOT":0},{"OBJECT_NAME":"ERMIS-3","OBJECT_ID":"2026-067K","EPOCH":"2026-04-17T19:48:00.507168","MEAN_MOTION":15.18188949,"ECCENTRICITY":0.00024211,"INCLINATION":97.4547,"RA_OF_ASC_NODE":67.211,"ARG_OF_PERICENTER":130.6704,"MEAN_ANOMALY":229.4741,"EPHEMERIS_TYPE":0,"CLASSIFICATION_TYPE":"U","NORAD_CAT_ID":68425,"ELEMENT_SET_NO":999,"REV_AT_EPOCH":278,"BSTAR":0.00018195425,"MEAN_MOTION_DOT":3.652e-5,"MEAN_MOTION_DDOT":0},{"OBJECT_NAME":"TRANSPORTER-16 OBJECT L","OBJECT_ID":"2026-067L","EPOCH":"2026-04-17T19:45:42.172128","MEAN_MOTION":15.18422136,"ECCENTRICITY":0.00025575,"INCLINATION":97.4509,"RA_OF_ASC_NODE":67.2046,"ARG_OF_PERICENTER":134.1336,"MEAN_ANOMALY":226.0109,"EPHEMERIS_TYPE":0,"CLASSIFICATION_TYPE":"U","NORAD_CAT_ID":68426,"ELEMENT_SET_NO":999,"REV_AT_EPOCH":278,"BSTAR":0.0004024134,"MEAN_MOTION_DOT":8.218e-5,"MEAN_MOTION_DDOT":0},{"OBJECT_NAME":"TRANSPORTER-16 OBJECT M","OBJECT_ID":"2026-067M","EPOCH":"2026-04-17T19:46:41.741472","MEAN_MOTION":15.18328004,"ECCENTRICITY":0.00024216,"INCLINATION":97.4509,"RA_OF_ASC_NODE":67.2039,"ARG_OF_PERICENTER":133.7783,"MEAN_ANOMALY":226.3652,"EPHEMERIS_TYPE":0,"CLASSIFICATION_TYPE":"U","NORAD_CAT_ID":68427,"ELEMENT_SET_NO":999,"REV_AT_EPOCH":278,"BSTAR":0.00032606578,"MEAN_MOTION_DOT":6.627e-5,"MEAN_MOTION_DDOT":0},{"OBJECT_NAME":"TRANSPORTER-16 OBJECT N","OBJECT_ID":"2026-067N","EPOCH":"2026-04-17T19:50:19.081536","MEAN_MOTION":15.18042703,"ECCENTRICITY":0.00018997,"INCLINATION":97.4529,"RA_OF_ASC_NODE":67.2056,"ARG_OF_PERICENTER":142.8468,"MEAN_ANOMALY":217.2898,"EPHEMERIS_TYPE":0,"CLASSIFICATION_TYPE":"U","NORAD_CAT_ID":68428,"ELEMENT_SET_NO":999,"REV_AT_EPOCH":278,"BSTAR":0.00015065227,"MEAN_MOTION_DOT":2.999e-5,"MEAN_MOTION_DDOT":0},{"OBJECT_NAME":"TRANSPORTER-16 OBJECT P","OBJECT_ID":"2026-067P","EPOCH":"2026-04-17T19:51:33.611904","MEAN_MOTION":15.18088191,"ECCENTRICITY":0.00013805,"INCLINATION":97.4477,"RA_OF_ASC_NODE":67.1898,"ARG_OF_PERICENTER":184.3779,"MEAN_ANOMALY":175.7444,"EPHEMERIS_TYPE":0,"CLASSIFICATION_TYPE":"U","NORAD_CAT_ID":68429,"ELEMENT_SET_NO":999,"REV_AT_EPOCH":278,"BSTAR":0.00042938497,"MEAN_MOTION_DOT":8.689e-5,"MEAN_MOTION_DDOT":0}]
